0 SCD 1
1 22490U 93009B   26161.61758488  .00000358  00000-0  47095-4 0  9996
2 22490  24.9686 248.1419 0042169  68.5859  38.8845 14.46116575760162
0 TECHSAT 1B
1 25397U 98043D   26161.53178858  .00000053  00000-0  43187-4 0  9996
2 25397  99.0066 154.1227 0000675 179.7383 180.3795 14.24427136450383
0 SCD 2
1 25504U 98060A   26161.55741325  .00000367  00000-0  51762-4 0  9998
2 25504  24.9943 113.0428 0016921  53.7700 109.0991 14.45523210459362
0 TUBSAT
1 25757U 99029B   26161.54218640  .00000083  00000-0  32275-4 0  9995
2 25757  98.6694 156.8276 0014477  15.2441 344.9186 14.52425167432286
0 TERRA
1 25994U 99068A   26161.65839779  .00000315  00000-0  73135-4 0  9993
2 25994  97.9458 211.4633 0001093 217.9293 254.4366 14.61097849408651
0 MAROC TUBSAT
1 27004U 01056D   26161.50483426 -.00000015  00000-0  36108-4 0  9992
2 27004  99.8079 338.2386 0020123 158.0441 269.4240 13.70262181225277
0 AQUA
1 27424U 02022A   26161.62000722  .00000676  00000-0  14414-3 0  9996
2 27424  98.4274 130.7718 0001371  53.1045   0.2372 14.62148132282314
0 TANSUO 1
1 28220U 04012A   26161.46344656  .00012725  00000-0  39410-3 0  9992
2 28220  97.8692 239.0956 0006153  54.6080 305.5736 15.33589617210065
0 AURA
1 28376U 04026A   26161.61824560  .00000674  00000-0  14617-3 0  9995
2 28376  98.3415 118.0173 0001293  72.1782 287.9559 14.61319150165256
0 CARTOSAT-1
1 28649U 05017A   26161.63584476  .00001126  00000-0  11909-3 0  9994
2 28649  97.5309 184.9976 0002663  88.7848 271.3676 14.91031993142849
0 SINAH 1
1 28893U 05043D   26161.63026344  .00000261  00000-0  59067-4 0  9996
2 28893  98.2852 295.9140 0013248 299.3216  60.6663 14.64153269 99563
0 RESURS DK-1
1 29228U 06021A   26161.62329161  .00002134  00000-0  12603-3 0  9993
2 29228  69.9339 356.5440 0006618 296.8727  63.1762 15.13187895101581
0 KOMPSAT 2
1 29268U 06031A   26161.60384181  .00000156  00000-0  37768-4 0  9991
2 29268  97.8313 346.3693 0015899  93.5501 359.1825 14.64655652 60518
0 LAPAN-TUBSAT
1 29709U 07001A   26161.58786856 -.00000133  00000-0 -86543-5 0  9994
2 29709  98.1346 160.6634 0011354 201.5439 158.5300 14.85942210 50175
0 HAIYANG 1B
1 31113U 07010A   26161.50238446  .00000080  00000-0  46123-4 0  9993
2 31113  98.3491 143.6069 0012627 217.0922 142.9390 14.31025222999675
0 SKYMED 1
1 31598U 07023A   26161.58489889  .00002016  00000-0  18011-3 0  9996
2 31598  97.8852 353.3862 0001014  85.1762 274.9575 14.97068791 28801
0 TERRA SAR X
1 31698U 07026A   26160.28753291  .00000433  00000-0  23833-4 0  9997
2 31698  97.4448 168.1064 0001685  80.8129 279.3296 15.19149435 52028
0 WORLDVIEW 1
1 32060U 07041A   26161.59588442  .00005449  00000-0  22657-3 0  9991
2 32060  97.3863 281.4352 0002858  39.6039 320.5407 15.24193553 41876
0 YAOGAN 3
1 32289U 07055A   26161.61663529  .00001691  00000-0  17779-3 0  9996
2 32289  97.8158 191.5592 0001776  85.5407 274.6014 14.90754206  4899
0 SKYMED 2
1 32376U 07059A   26161.61251450  .00000351  00000-0  50624-4 0  9992
2 32376  97.8885 345.3060 0001399  85.2265 274.9108 14.82149442  1033
0 RADARSAT 2
1 32382U 07061A   26161.60049207  .00000002  00000-0  17725-4 0  9994
2 32382  98.5782 168.6272 0001297  83.0343 277.0987 14.29983449965015
0 CARTOSAT 2A
1 32783U 08021A   26161.62035395  .00000732  00000-0  10514-3 0  9999
2 32783  97.7638 210.5532 0012851 128.1449 232.0923 14.79228877977839
0 HJ-1A
1 33320U 08041A   26161.62581267  .00000396  00000-0  53665-4 0  9994
2 33320  97.6682 147.7180 0019359 155.4370 204.7771 14.83969301957431
0 HJ-1B
1 33321U 08041B   26161.59191681  .00000914  00000-0  11677-3 0  9990
2 33321  97.6517 150.8772 0035445 202.9765 156.9866 14.83305460957434
0 GEOEYE 1
1 33331U 08042A   26161.52554104  .00000374  00000-0  79250-4 0  9990
2 33331  98.1236 235.5410 0005554  85.4978 274.6859 14.64719518949171
0 THEOS
1 33396U 08049A   26161.55737978  .00000393  00000-0  20427-3 0  9995
2 33396  98.5574 219.0562 0001254  79.6159 280.5159 14.20133811917021
0 SKYMED 3
1 33412U 08054A   26161.56940981  .00003137  00000-0  21403-3 0  9995
2 33412  97.8288  20.0308 0014381 291.8225  68.1472 15.06906803955944
0 YAOGAN 4
1 33446U 08061A   26161.55570463  .00000834  00000-0  10861-3 0  9990
2 33446  97.9308  95.1150 0015780  92.0346 268.2675 14.83187314944681
0 GOSAT (IBUKI)
1 33492U 09002A   26161.25196092  .00000990  00000-0  18298-3 0  9991
2 33492  98.0884 272.4203 0001583  88.8695 271.2691 14.67540919930445
0 DEIMOS 1
1 35681U 09041A   26161.67496623  .00000662  00000-0  10493-3 0  9990
2 35681  97.7398 319.1856 0001206 137.7487 222.3816 14.75231394905925
